STARLINK-4123           
1 53539U 22101N   22244.58335648  .00050518  00000+0  36281-3 0  9998
2 53539  53.2154  91.4314 0001180  66.1268 192.4312 15.73160247  1300
STARLINK-4486           
1 53540U 22101P   22244.58335648 -.00085224  00000+0 -60830-3 0  9991
2 53540  53.2160  91.4263 0001479  74.2314 187.9456 15.73225003  1305
STARLINK-4485           
1 53541U 22101Q   22244.58335648  .00051312  00000+0  36784-3 0  9992
2 53541  53.2157  91.4302 0001150  73.8538 185.8402 15.73196577  1306
STARLINK-4489           
1 53542U 22101R   22244.58335648 -.00054806  00000+0 -38806-3 0  9993
2 53542  53.2158  91.4236 0001083  66.0826 197.1317 15.73234278  1305
STARLINK-4297           
1 53543U 22101S   22244.58335648 -.00005924  00000+0 -37820-4 0  9997
2 53543  53.2158  91.4266 0001259  72.5311 188.9850 15.73199950  1302
STARLINK-4303           
1 53544U 22101T   22244.58335648  .00017351  00000+0  12780-3 0  9990
2 53544  53.2159  91.4213 0000847  63.0042 201.4625 15.73196961  1304
STARLINK-4475           
1 53545U 22101U   22244.58335648 -.00062129  00000+0 -44065-3 0  9997
2 53545  53.2159  91.4247 0001246  82.1281 180.4756 15.73246417  1306
STARLINK-4477           
1 53546U 22101V   22244.58335648 -.01313909  00000+0 -65129-2 0  9997
2 53546  53.2171  90.5128 0001745  24.3036 326.0026 15.84054738  1302
STARLINK-4474           
1 53547U 22101W   22244.58335648 -.00082541  00000+0 -58816-3 0  9998
2 53547  53.2161  91.4228 0001163  73.2242 190.6374 15.73252353  1301
STARLINK-4513           
1 53548U 22101X   22244.58335648  .00051349  00000+0  36866-3 0  9990
2 53548  53.2160  91.4167 0001172  70.7193 196.1497 15.73160791  1301
STARLINK-4516           
1 53549U 22101Y   22244.58335648  .00020861  00000+0  15270-3 0  9992
2 53549  53.2153  91.4179 0000957  68.3140 196.7728 15.73197589  1300
STARLINK-4518           
1 53550U 22101Z   22244.58335648 -.00053664  00000+0 -37915-3 0  9993
2 53550  53.2156  91.4148 0000812  58.7043 208.5929 15.73276653  1301
STARLINK-4514           
1 53551U 22101AA  22244.58335648  .00208714  00000+0  14613-2 0  9999
2 53551  53.2160  91.4191 0001069  72.2554 193.3814 15.73096636  1303
STARLINK-4495           
1 53552U 22101AB  22244.58335648  .00052708  00000+0  37811-3 0  9996
2 53552  53.2160  91.4125 0000806  60.9067 208.2905 15.73169082  1305
STARLINK-4501           
1 53553U 22101AC  22244.58335648  .00134194  00000+0  94960-3 0  9995
2 53553  53.2159  91.4138 0001232  68.4915 199.5362 15.73095197  1301
STARLINK-4506           
1 53554U 22101AD  22244.58335648  .00050728  00000+0  36421-3 0  9994
2 53554  53.2156  91.4086 0001176  83.0113 187.4860 15.73165699  1305
STARLINK-4504           
1 53555U 22101AE  22244.58335648  .00050898  00000+0  36606-3 0  9998
2 53555  53.2154  91.4109 0001054  71.8887 196.8034 15.73123828  1303
STARLINK-4505           
1 53556U 22101AF  22244.58335648  .00050815  00000+0  36493-3 0  9992
2 53556  53.2157  91.4069 0001211  75.0760 196.5401 15.73158874  1307
STARLINK-4502           
1 53557U 22101AG  22244.58335648  .00050509  00000+0  36329-3 0  9991
2 53557  53.2156  91.4099 0001195  74.4233 195.4544 15.73125346  1303
STARLINK-4494           
1 53558U 22101AH  22244.58335648  .00049972  00000+0  35898-3 0  9994
2 53558  53.2160  91.4053 0001275  77.4714 195.3637 15.73159118  1301
STARLINK-4508           
1 53559U 22101AJ  22244.58335648 -.00101978  00000+0 -72994-3 0  9990
2 53559  53.2159  91.4082 0001224  73.1290 197.9089 15.73234440  1309
STARLINK-4564           
1 53560U 22101AK  22244.58335648  .00057262  00000+0  41009-3 0  9999
2 53560  53.2156  91.4015 0000981  66.2347 207.8503 15.73174121  1300
STARLINK-4563           
1 53561U 22101AL  22244.58335648  .00050815  00000+0  36498-3 0  9993
2 53561  53.2156  91.4048 0001216  69.5754 202.6386 15.73155659  1304
STARLINK-4565           
1 53562U 22101AM  22244.58335648 -.00116240  00000+0 -83175-3 0  9995
2 53562  53.2156  91.3995 0001339  67.5338 207.6132 15.73298454  1302
STARLINK-4561           
1 53563U 22101AN  22244.58335648  .00056656  00000+0  40594-3 0  9996
2 53563  53.2157  91.4031 0000998  65.7996 207.6218 15.73167514  1303
STARLINK-4577           
1 53564U 22101AP  22244.58335648 -.00057654  00000+0 -40825-3 0  9995
2 53564  53.2155  91.3961 0001232  79.3949 197.0198 15.73253516  1301
STARLINK-4575           
1 53565U 22101AQ  22244.58335648 -.00133837  00000+0 -95951-3 0  9994
2 53565  53.2157  91.4003 0000947  78.5005 196.0189 15.73319732  1300
STARLINK-4576           
1 53566U 22101AR  22244.58335648  .00050188  00000+0  36066-3 0  9992
2 53566  53.2158  91.3952 0001039  64.3164 213.2582 15.73148816  1308
STARLINK-4585           
1 53567U 22101AS  22244.58335648  .00161779  00000+0  11414-2 0  9991
2 53567  53.2159  91.3989 0001319  70.7701 204.9374 15.73069072  1301
STARLINK-4583           
1 53568U 22101AT  22244.58335648  .00049718  00000+0  35730-3 0  9998
2 53568  53.2157  91.3910 0001085  55.7707 223.6241 15.73151603  1306
STARLINK-4582           
1 53569U 22101AU  22244.58335648  .00051807  00000+0  37193-3 0  9996
2 53569  53.2157  91.3953 0001063  65.4236 211.5798 15.73158277  1302
STARLINK-4550           
1 53570U 22101AV  22244.58335648  .00051339  00000+0  36871-3 0  9990
2 53570  53.2158  91.3925 0001435  75.0766 203.7578 15.73153270  1309
STARLINK-4584           
1 53571U 22101AW  22244.58335648  .00052539  00000+0  37709-3 0  9995
2 53571  53.2157  91.3928 0000995  65.9138 212.2596 15.73158329  1308
STARLINK-4555           
1 53572U 22101AX  22244.58335648  .00052797  00000+0  37867-3 0  9997
2 53572  53.2160  91.3876 0001092  51.6892 229.4879 15.73173289  1309
STARLINK-4547           
1 53573U 22101AY  22244.58335648 -.00057857  00000+0 -41046-3 0  9996
2 53573  53.2157  91.3894 0001267  64.1518 215.8561 15.73210927  1302
STARLINK-4559           
1 53574U 22101AZ  22244.58335648  .00057717  00000+0  41364-3 0  9993
2 53574  53.2162  91.3864 0001491  65.8994 216.4606 15.73153997  1301
STARLINK-4551           
1 53575U 22101BA  22244.58335648 -.00033006  00000+0 -23144-3 0  9997
2 53575  53.2158  91.3886 0001226  66.2574 214.3673 15.73223559  1309
STARLINK-4581           
1 53576U 22101BB  22244.58335648  .00049865  00000+0  35862-3 0  9996
2 53576  53.2155  91.3831 0001204  61.5807 221.4092 15.73133055  1305
STARLINK-4553           
1 53577U 22101BC  22244.58335648  .00052531  00000+0  37690-3 0  9992
2 53577  53.2158  91.3855 0001175  63.6261 218.1567 15.73166759  1306
STARLINK-4556           
1 53578U 22101BD  22244.58335648 -.00104878  00000+0 -75057-3 0  9996
2 53578  53.2159  91.3832 0001308  63.6519 219.9539 15.73249943  1302
STARLINK-4580           
1 53579U 22101BE  22244.58335648  .00054521  00000+0  39123-3 0  9998
2 53579  53.2159  91.3815 0001276  71.3853 212.7886 15.73147936  2031
FALCON 9 DEB            
1 53580U 22101BF  22244.41146263  .00754287  11536-4  69963-3 0  9997
2 53580  53.2174  90.8145 0052612  89.1622 271.5441 16.08459816  2033
FALCON 9 DEB            
1 53581U 22101BG  22244.28309031  .00777014  11540-4  72680-3 0  9995
2 53581  53.2141  91.4278 0048973  90.0467 270.6180 16.08736807  2011
FALCON 9 DEB            
1 53582U 22101BH  22243.96401188  .00656376  11559-4  59165-3 0  9996
2 53582  53.2153  92.9838 0048158  82.5083 278.1420 16.09360145  1960
FALCON 9 DEB            
1 53583U 22101BJ  22243.71518425  .00720866  11557-4  65003-3 0  9995
2 53583  53.2159  94.2766 0048699  83.4565 277.2012 16.09290293  1926
CHUANGXIN 16 (CX-16)    
1 53586U 22102A   22244.59330917  .00000789  00000+0  63442-4 0  9991
2 53586  29.0015 307.0611 0004547 348.5778  11.4525 14.91646618  1427
BEIJING-3B              
1 53587U 22103A   22244.51166097  .00000713  00000+0  84902-4 0  9992
2 53587  97.9416 313.1339 0013730 235.3826 124.6092 14.87450833  1257
